IRIDIUM 150             
1 43257U 18030J   26018.28536265  .00000227  00000+0  74081-4 0  9991
2 43257  86.3986 353.1281 0002254  84.0739 276.0714 14.34217301408678
IRIDIUM 143             
1 43258U 18030K   26018.47564139  .00000056  00000+0  12815-4 0  9991
2 43258  86.3992 353.1354 0002274  81.3199 278.8254 14.34218060408637
IRIDIUM 161             
1 43478U 18047C   26018.62237605  .00000337  00000+0  94287-4 0  9990
2 43478  86.4536 150.9826 0002006 103.9885 256.1539 14.43280600403560
IRIDIUM 152             
1 43479U 18047D   26018.65766433  .00000154  00000+0  48026-4 0  9997
2 43479  86.4010 150.8284 0002091  99.8833 260.2599 14.34218591401059
IRIDIUM 147             
1 43480U 18047E   26018.59423864  .00000071  00000+0  18328-4 0  9990
2 43480  86.4011 150.8575 0001969  92.9329 267.2092 14.34218092401042
IRIDIUM 110             
1 43481U 18047F   26018.39127539  .00000072  00000+0  18542-4 0  9998
2 43481  86.4013 151.0299 0002000 109.4280 250.7132 14.34218135401004
IRIDIUM 162             
1 43482U 18047G   26018.40808777  .00000354  00000+0  99205-4 0  9999
2 43482  86.4534 150.9649 0002410  96.2159 263.9316 14.43284746403523
IRIDIUM 160             
1 43569U 18061A   26018.54641708  .00000268  00000+0  88738-4 0  9998
2 43569  86.3993 119.3804 0002015 102.3698 257.7724 14.34218858391922
